[{"name": "BEIDOU-2 IGSO-1 (C06)", "line1": "1 36828U 10036A   26155.94303235 -.00000061  00000+0  00000+0 0  9991", "line2": "2 36828  54.3007 163.0699 0059008 224.9601 312.4811  1.00276170 57970"}, {"name": "BEIDOU-2 G4 (C04)", "line1": "1 37210U 10057A   26156.16710525 -.00000100  00000+0  00000+0 0  9993", "line2": "2 37210   3.6172  69.0187 0004820 203.4415 201.3150  1.00272356 57176"}, {"name": "BEIDOU-2 IGSO-2 (C07)", "line1": "1 37256U 10068A   26153.71703494 -.00000206  00000+0  00000+0 0  9997", "line2": "2 37256  47.5760 272.0122 0055435 212.8539 131.7633  1.00288733 56649"}, {"name": "BEIDOU-2 IGSO-3 (C08)", "line1": "1 37384U 11013A   26155.63444529 -.00000179  00000+0  00000+0 0  9993", "line2": "2 37384  62.3902  40.2715 0034446 185.4993   3.7397  1.00271497 55536"}, {"name": "BEIDOU-2 IGSO-4 (C09)", "line1": "1 37763U 11038A   26151.51943152  .00000047  00000+0  00000+0 0  9993", "line2": "2 37763  54.5976 165.8209 0158670 231.3955 131.4280  1.00288616 54482"}, {"name": "BEIDOU-2 IGSO-5 (C10)", "line1": "1 37948U 11073A   26155.64834352 -.00000161  00000+0  00000+0 0  9994", "line2": "2 37948  47.7023 271.7026 0113306 221.7104  84.8230  1.00276059 53005"}, {"name": "BEIDOU-2 G5 (C05)", "line1": "1 38091U 12008A   26155.93315230  .00000069  00000+0  00000+0 0  9990", "line2": "2 38091   3.5433  69.7722 0009607 276.3543 301.8907  1.00269427 52248"}, {"name": "BEIDOU-2 M3 (C11)", "line1": "1 38250U 12018A   26155.83864812 -.00000057  00000+0  00000+0 0  9990", "line2": "2 38250  55.7691 305.2911 0019907 274.9858  84.7727  1.86230146 95711"}, {"name": "BEIDOU-2 M4 (C12)", "line1": "1 38251U 12018B   26155.23396757 -.00000059  00000+0  00000+0 0  9995", "line2": "2 38251  55.6701 304.5261 0011084 278.0259  81.8322  1.86229800 95704"}, {"name": "BEIDOU-2 M6 (C14)", "line1": "1 38775U 12050B   26152.25896984 -.00000064  00000+0  00000+0 0  9994", "line2": "2 38775  56.5308  63.4210 0014006 354.6899   5.3055  1.86231095 93016"}, {"name": "BEIDOU-2 G6 (C02)", "line1": "1 38953U 12059A   26155.36781530 -.00000163  00000+0  00000+0 0  9996", "line2": "2 38953   4.3894  73.6602 0010387 326.1663  69.3340  1.00268705 49780"}, {"name": "BEIDOU-3S IGSO-1S (C31)", "line1": "1 40549U 15019A   26155.86761368 -.00000162  00000+0  00000+0 0  9990", "line2": "2 40549  49.2196 295.6097 0038519 191.1841 171.3273  1.00253760 40950"}, {"name": "BEIDOU-3S M2S (C58)", "line1": "1 40748U 15037A   26153.28873813 -.00000070  00000+0  00000+0 0  9992", "line2": "2 40748  54.8844 302.5583 0007848 262.7057  97.1823  1.86232274 73847"}, {"name": "BEIDOU-3S M1S (C57)", "line1": "1 40749U 15037B   26154.57173103 -.00000062  00000+0  00000+0 0  9992", "line2": "2 40749  54.8802 302.5027 0003703  59.9652 300.0537  1.86254987 73874"}, {"name": "BEIDOU-3S IGSO-2S (C56)", "line1": "1 40938U 15053A   26155.76900253 -.00000132  00000+0  00000+0 0  9994", "line2": "2 40938  49.2418 258.9308 0064952 192.1222 174.7728  1.00262689 39231"}, {"name": "BEIDOU-2 IGSO-6 (C13)", "line1": "1 41434U 16021A   26155.65446394 -.00000144  00000+0  00000+0 0  9994", "line2": "2 41434  60.2080  38.1652 0057273 231.5153 312.6127  1.00262242 37352"}, {"name": "BEIDOU-2 G7 (C03)", "line1": "1 41586U 16037A   26155.94346568 -.00000341  00000+0  00000+0 0  9992", "line2": "2 41586   1.6898  69.2155 0007356   0.6703 273.7108  1.00271402  6767"}, {"name": "BEIDOU-3 M1 (C19)", "line1": "1 43001U 17069A   26154.17216962 -.00000047  00000+0  00000+0 0  9993", "line2": "2 43001  56.6802  63.5462 0010988 322.8925  37.0519  1.86231656 58343"}, {"name": "BEIDOU-3 M2 (C20)", "line1": "1 43002U 17069B   26151.96304775 -.00000066  00000+0  00000+0 0  9999", "line2": "2 43002  56.6782  63.6543 0009614 347.1682  12.8156  1.86230808 58296"}, {"name": "BEIDOU-3 M7 (C27)", "line1": "1 43107U 18003A   26153.31562551 -.00000071  00000+0  00000+0 0  9999", "line2": "2 43107  54.3417 302.8330 0005070  90.2688 269.7671  1.86228333 57078"}, {"name": "BEIDOU-3 M8 (C28)", "line1": "1 43108U 18003B   26154.87148684 -.00000062  00000+0  00000+0 0  9999", "line2": "2 43108  54.3329 302.7609 0002231 266.6467  93.3113  1.86231332 57119"}, {"name": "BEIDOU-3 M4 (C22)", "line1": "1 43207U 18018A   26153.70349578 -.00000051  00000+0  00000+0 0  9999", "line2": "2 43207  56.6388  63.6258 0007672  13.2474 346.7904  1.86231554 56477"}, {"name": "BEIDOU-3 M3 (C21)", "line1": "1 43208U 18018B   26154.30692756 -.00000046  00000+0  00000+0 0  9990", "line2": "2 43208  56.6388  63.6101 0009023 337.6443  22.3370  1.86231435 56489"}, {"name": "BEIDOU-3 M9 (C29)", "line1": "1 43245U 18029A   26155.59858909 -.00000057  00000+0  00000+0 0  9991", "line2": "2 43245  54.2059 300.3891 0000855 130.6986 229.2957  1.86228675 55663"}, {"name": "BEIDOU-3 M10 (C30)", "line1": "1 43246U 18029B   26155.53301594 -.00000058  00000+0  00000+0 0  9990", "line2": "2 43246  54.2031 300.4173 0004213  39.7863 320.2312  1.86229508 55644"}, {"name": "BEIDOU-2 IGSO-7 (C16)", "line1": "1 43539U 18057A   26155.94337902 -.00000001  00000+0  00000+0 0  9991", "line2": "2 43539  55.1930 163.1644 0104564 237.9031 302.7938  1.00255284 29009"}, {"name": "BEIDOU-3 M5 (C23)", "line1": "1 43581U 18062A   26153.07238422  .00000068  00000+0  00000+0 0  9995", "line2": "2 43581  54.0848 182.8178 0005400 289.3317  70.6790  1.86228829 53350"}, {"name": "BEIDOU-3 M6 (C24)", "line1": "1 43582U 18062B   26152.39883191  .00000072  00000+0  00000+0 0  9994", "line2": "2 43582  54.0843 182.8299 0004893  10.9219 349.1611  1.86227844 53345"}, {"name": "BEIDOU-3 M12 (C26)", "line1": "1 43602U 18067A   26154.48504632  .00000068  00000+0  00000+0 0  9999", "line2": "2 43602  54.1795 181.5047 0007805  30.5016 329.6039  1.86227912 52860"}, {"name": "BEIDOU-3 M11 (C25)", "line1": "1 43603U 18067B   26155.15702532  .00000070  00000+0  00000+0 0  9997", "line2": "2 43603  54.1770 181.4456 0004484  14.1881 345.8817  1.86227378 52900"}, {"name": "BEIDOU-3 M13 (C32)", "line1": "1 43622U 18072A   26154.57499090 -.00000045  00000+0  00000+0 0  9994", "line2": "2 43622  56.6134  63.1084 0007738 326.0448  33.9283  1.86231528 52403"}, {"name": "BEIDOU-3 M14 (C33)", "line1": "1 43623U 18072B   26155.51434076 -.00000041  00000+0  00000+0 0  9999", "line2": "2 43623  56.6162  63.0714 0006326 355.1542   4.8656  1.86231601 52418"}, {"name": "BEIDOU-3 M16 (C35)", "line1": "1 43647U 18078A   26155.13289917 -.00000059  00000+0  00000+0 0  9990", "line2": "2 43647  54.1026 300.4437 0007436  40.6821 319.3585  1.86232447 51913"}, {"name": "BEIDOU-3 M15 (C34)", "line1": "1 43648U 18078B   26152.57744501 -.00000074  00000+0  00000+0 0  9998", "line2": "2 43648  54.1007 300.5335 0004536  56.3394 303.6792  1.86232507 51887"}, {"name": "BEIDOU-3 G1 (C59)", "line1": "1 43683U 18085A   26155.88194470 -.00000097  00000+0  00000+0 0  9991", "line2": "2 43683   2.8372  97.7188 0008564 345.6804 287.4065  1.00272084 27938"}, {"name": "BEIDOU-3 M17 (C36)", "line1": "1 43706U 18093A   26154.62162884  .00000067  00000+0  00000+0 0  9997", "line2": "2 43706  54.1684 182.7566 0009972 291.4336 250.9335  1.86228565 51286"}, {"name": "BEIDOU-3 M18 (C37)", "line1": "1 43707U 18093B   26155.28675966  .00000069  00000+0  00000+0 0  9993", "line2": "2 43707  54.1691 182.7261 0007731 321.6175  38.3865  1.86226753 51299"}, {"name": "BEIDOU-3 IGSO-1 (C38)", "line1": "1 44204U 19023A   26155.58793341 -.00000211  00000+0  00000+0 0  9991", "line2": "2 44204  58.6768  37.7810 0025470 225.7549 318.3782  1.00295778  7080"}, {"name": "BEIDOU-2 G8 (C01)", "line1": "1 44231U 19027A   26155.87891135 -.00000235  00000+0  00000+0 0  9993", "line2": "2 44231   1.6270  74.4893 0010740 284.3697 355.3475  1.00275835 25952"}, {"name": "BEIDOU-3 IGSO-2 (C39)", "line1": "1 44337U 19035A   26155.89438184 -.00000070  00000+0  00000+0 0  9999", "line2": "2 44337  55.2445 158.9697 0039725 216.0101 320.2492  1.00270541 25548"}, {"name": "BEIDOU-3 M24 (C46)", "line1": "1 44542U 19061A   26155.35556796  .00000070  00000+0  00000+0 0  9996", "line2": "2 44542  54.3958 183.1608 0008292 359.5616   0.4973  1.86229272 45559"}, {"name": "BEIDOU-3 M23 (C45)", "line1": "1 44543U 19061B   26154.68386650  .00000068  00000+0  00000+0 0  9999", "line2": "2 44543  54.3944 183.1515 0005545 339.9978 201.4019  1.86227422 45541"}, {"name": "BEIDOU-3 IGSO-3 (C40)", "line1": "1 44709U 19073A   26136.81046384 -.00000217  00000+0  00000+0 0  9995", "line2": "2 44709  54.8566 281.2355 0042953 189.4588 170.3676  1.00246251 24144"}, {"name": "BEIDOU-3 M22 (C44)", "line1": "1 44793U 19078A   26155.73214334 -.00000057  00000+0  00000+0 0  9999", "line2": "2 44793  53.9480 300.2653 0006836  50.3740 309.6737  1.86227601 44410"}, {"name": "BEIDOU-3 M21 (C43)", "line1": "1 44794U 19078B   26155.33513565 -.00000059  00000+0  00000+0 0  9996", "line2": "2 44794  53.9214 300.2407 0004642  48.3800 311.6458  1.86228007 44414"}, {"name": "BEIDOU-3 M19 (C41)", "line1": "1 44864U 19090A   26153.18027023 -.00000055  00000+0  00000+0 0  9994", "line2": "2 44864  56.5459  63.2868 0018350 297.3172 255.2065  1.86231755 43957"}, {"name": "BEIDOU-3 M20 (C42)", "line1": "1 44865U 19090B   26152.40309426 -.00000062  00000+0  00000+0 0  9997", "line2": "2 44865  56.5472  63.3464 0016275 310.6292 170.4314  1.86231789 43921"}, {"name": "BEIDOU-3 G2 (C60)", "line1": "1 45344U 20017A   26155.79480067 -.00000129  00000+0  00000+0 0  9991", "line2": "2 45344   2.8392  47.1642 0002888  25.2494 186.9685  1.00270930 23136"}, {"name": "BEIDOU-3 G3 (C61)", "line1": "1 45807U 20040A   26155.94346568 -.00000342  00000+0  00000+0 0  9992", "line2": "2 45807   2.4173  67.4228 0003076 336.0355 300.1398  1.00274315 21946"}, {"name": "BEIDOU-3 G4 (C62)", "line1": "1 56564U 23066A   26155.87795802 -.00000270  00000+0  00000+0 0  9996", "line2": "2 56564   0.5017 328.3114 0004411 167.9085 213.1847  1.00268568 11272"}, {"name": "BEIDOU-3 M28 (C50)", "line1": "1 58654U 23207A   26153.26442756 -.00000057  00000+0  00000+0 0  9996", "line2": "2 58654  55.7401  62.8066 0003671 340.5221  19.4799  1.86229873 16567"}, {"name": "BEIDOU-3 M26 (C48)", "line1": "1 58655U 23207B   26154.13584299 -.00000050  00000+0  00000+0 0  9996", "line2": "2 58655  55.7428  62.7637 0003644 315.9700  44.0214  1.86229917 16563"}, {"name": "BEIDOU-3 M25 (C47)", "line1": "1 61186U 24168B   26155.83666087 -.00000058  00000+0  00000+0 0  9998", "line2": "2 61186  54.4852 302.6721 0003063 306.3392 231.2716  1.86230297 11553"}, {"name": "BEIDOU-3 M27 (C49)", "line1": "1 61187U 24168C   26155.63721520 -.00000058  00000+0  00000+0 0  9991", "line2": "2 61187  54.4808 302.6620 0001796  47.2296 131.6878  1.86230382  9024"}]